{"type": "Feature", "properties": {}, "geometry": {"type": "MultiPolygon", "coordinates": [[[[35.88462, 33.43718], [35.88724, 33.42117], [35.88287, 33.42083], [35.87597, 33.41696], [35.86074, 33.41313], [35.85728, 33.41137], [35.8569, 33.40924], [35.84684, 33.40858], [35.84352, 33.40184], [35.82926, 33.39445], [35.82285, 33.38844], [35.81953, 33.38171], [35.81971, 33.37495], [35.8168, 33.36928], [35.81695, 33.36395], [35.82007, 33.3618], [35.82151, 33.35717], [35.82037, 33.35078], [35.81825, 33.3483], [35.81256, 33.34797], [35.81174, 33.34584], [35.79667, 33.33633], [35.7937, 33.33279], [35.78189, 33.33178], [35.77974, 33.33037], [35.76752, 33.32866], [35.75884, 33.32586], [35.75139, 33.3259], [35.74449, 33.32167], [35.74025, 33.31636], [35.73806, 33.31637], [35.73802, 33.31779], [35.73044, 33.32281], [35.72947, 33.32637], [35.72201, 33.32677], [35.71945, 33.32429], [35.71382, 33.32183], [35.71241, 33.30904], [35.71462, 33.30832], [35.71466, 33.3069], [35.71214, 33.303], [35.70871, 33.30017], [35.69828, 33.29703], [35.69661, 33.29419], [35.68872, 33.29424], [35.68315, 33.28964], [35.67438, 33.28969], [35.67143, 33.28544], [35.66882, 33.28474], [35.66809, 33.27941], [35.66206, 33.27554], [35.65996, 33.27235], [35.64625, 33.27704], [35.63924, 33.27708], [35.6206, 33.26971], [35.62112, 33.25051], [35.62332, 33.25015], [35.62445, 33.2409], [35.62182, 33.24091], [35.61289, 33.247], [35.59962, 33.25169], [35.59417, 33.25883], [35.58483, 33.26386], [35.58389, 33.26635], [35.58516, 33.26777], [35.58351, 33.28022], [35.5755, 33.28488], [35.57022, 33.28562], [35.56887, 33.28705], [35.5623, 33.28673], [35.56108, 33.28318], [35.56229, 33.27109], [35.558, 33.26756], [35.55765, 33.26436], [35.55465, 33.26188], [35.55392, 33.25656], [35.54438, 33.25305], [35.54484, 33.23599], [35.53811, 33.22571], [35.53693, 33.20474], [35.5415, 33.19797], [35.54157, 33.19512], [35.53571, 33.1692], [35.52808, 33.14365], [35.52827, 33.13653], [35.53229, 33.13367], [35.53233, 33.13225], [35.52138, 33.11631], [35.50648, 33.11639], [35.50432, 33.11498], [35.50499, 33.09044], [35.49398, 33.09263], [35.44669, 33.09146], [35.43202, 33.06701], [35.3971, 33.06222], [35.38174, 33.06337], [35.37841, 33.05698], [35.37139, 33.05702], [35.35469, 33.05889], [35.3485, 33.06105], [35.34398, 33.06641], [35.33774, 33.07], [35.33404, 33.07713], [35.32603, 33.08179], [35.32062, 33.08751], [35.32162, 33.09888], [35.31666, 33.10424], [35.31052, 33.10427], [35.30664, 33.10216], [35.29875, 33.1022], [35.29778, 33.10576], [35.2942, 33.10827], [35.28675, 33.10831], [35.27772, 33.10231], [35.26765, 33.10201], [35.25331, 33.09746], [35.24586, 33.0975], [35.23501, 33.094], [35.2284, 33.09511], [35.22256, 33.10047], [35.20676, 33.10162], [35.20336, 33.09773], [35.20268, 33.09062], [35.19873, 33.09064], [35.19135, 33.08819], [35.18872, 33.08821], [35.18599, 33.09178], [35.18117, 33.0918], [35.1745, 33.09575], [35.16705, 33.09579], [35.16448, 33.09331], [35.15971, 33.09156], [35.15184, 33.09089], [35.15091, 33.09303], [35.10923, 33.09503], [35.10261, 33.09684], [35.09735, 33.09687], [35.0993, 33.10574], [35.10908, 33.11671], [35.11257, 33.1174], [35.12766, 33.12621], [35.13723, 33.12865], [35.1424, 33.13218], [35.14529, 33.13856], [35.14871, 33.14174], [35.1523, 33.15452], [35.15743, 33.15947], [35.15948, 33.16444], [35.16205, 33.16656], [35.16381, 33.16655], [35.16694, 33.16404], [35.19104, 33.16391], [35.19905, 33.15925], [35.20131, 33.15675], [35.20007, 33.15427], [35.20065, 33.14893], [35.21952, 33.14777], [35.22205, 33.15131], [35.22894, 33.15589], [35.23088, 33.16513], [35.23696, 33.16723], [35.24923, 33.16681], [35.25856, 33.16213], [35.26463, 33.14859], [35.26814, 33.14822], [35.27174, 33.14465], [35.28357, 33.14494], [35.29064, 33.14277], [35.29377, 33.14026], [35.2999, 33.14023], [35.30219, 33.13666], [35.30707, 33.13451], [35.31627, 33.13446], [35.31839, 33.13729], [35.3284, 33.13972], [35.33571, 33.14466], [35.34094, 33.1457], [35.3578, 33.15414], [35.36919, 33.15408], [35.37298, 33.15975], [35.38352, 33.15899], [35.38538, 33.15471], [35.38329, 33.15117], [35.38343, 33.14619], [35.38743, 33.14403], [35.394, 33.144], [35.4038, 33.15426], [35.40862, 33.15423], [35.41173, 33.15244], [35.41787, 33.1524], [35.42566, 33.15592], [35.43572, 33.15658], [35.4375, 33.1555], [35.44451, 33.15546], [35.44796, 33.15758], [35.46595, 33.15677], [35.47002, 33.15177], [35.47616, 33.15174], [35.48219, 33.15562], [35.48217, 33.17233], [35.48031, 33.17625], [35.48201, 33.17837], [35.48185, 33.18406], [35.47953, 33.18905], [35.48138, 33.21748], [35.46999, 33.23354], [35.46941, 33.23887], [35.47281, 33.24277], [35.47336, 33.25449], [35.4693, 33.25878], [35.45575, 33.25779], [35.44999, 33.25995], [35.43794, 33.26819], [35.43733, 33.27459], [35.44019, 33.28204], [35.44006, 33.28702], [35.43693, 33.28917], [35.43165, 33.28991], [35.42847, 33.29419], [35.42835, 33.29846], [35.43137, 33.30022], [35.43123, 33.30555], [35.42942, 33.30734], [35.42795, 33.31339], [35.43272, 33.31514], [35.44412, 33.31473], [35.45196, 33.31646], [35.45809, 33.31643], [35.4608, 33.31357], [35.47173, 33.31458], [35.47882, 33.31134], [35.48627, 33.31131], [35.49314, 33.3166], [35.49489, 33.31659], [35.50777, 33.31012], [35.51479, 33.31009], [35.52343, 33.31431], [35.52482, 33.32781], [35.52824, 33.33099], [35.53087, 33.33098], [35.54022, 33.32524], [35.54386, 33.32024], [35.54347, 33.30247], [35.54751, 33.29889], [35.55452, 33.29886], [35.55929, 33.30096], [35.56033, 33.31091], [35.56241, 33.31481], [35.56975, 33.31904], [35.5728, 33.31938], [35.58035, 33.31578], [35.59172, 33.31679], [35.59239, 33.32425], [35.58914, 33.33102], [35.59628, 33.35836], [35.60179, 33.36508], [35.61365, 33.36396], [35.62794, 33.35428], [35.63768, 33.35032], [35.63852, 33.33574], [35.64342, 33.33251], [35.64138, 33.32719], [35.64151, 33.32222], [35.6429, 33.31972], [35.64781, 33.31614], [35.64985, 33.30582], [35.65385, 33.30366], [35.6626, 33.30397], [35.66823, 33.30643], [35.67477, 33.32382], [35.69922, 33.32689], [35.70481, 33.33077], [35.70597, 33.33645], [35.71322, 33.34388], [35.71297, 33.35277], [35.71855, 33.35736], [35.7188, 33.36411], [35.72575, 33.36621], [35.72562, 33.37118], [35.72339, 33.37262], [35.7236, 33.38079], [35.72744, 33.38468], [35.72722, 33.39286], [35.74047, 33.40488], [35.75, 33.40909], [35.75023, 33.41656], [35.75715, 33.42008], [35.75868, 33.42824], [35.76735, 33.4314], [35.7836, 33.43025], [35.7984, 33.43372], [35.80655, 33.44008], [35.81421, 33.44821], [35.81813, 33.44926], [35.82121, 33.44889], [35.83321, 33.44243], [35.8385, 33.44133], [35.84946, 33.44092], [35.85347, 33.43876], [35.86179, 33.43872], [35.86482, 33.44012], [35.87535, 33.43971], [35.88462, 33.43718]]]]}}